{
    "links": {
        "self": "http://www.neowsapp.com/rest/v1/neo/3771062?api_key=iIulBulltgU6a56xZRHN4H3l9WmuAYTsLGpBGhQ2"
    },
    "id": "3771062",
    "neo_reference_id": "3771062",
    "name": "(2017 EG4)",
    "designation": "2017 EG4",
    "nasa_jpl_url": "http://ssd.jpl.nasa.gov/sbdb.cgi?sstr=3771062",
    "absolute_magnitude_h": 21.9,
    "estimated_diameter": {
        "kilometers": {
            "estimated_diameter_min": 0.1108038821,
            "estimated_diameter_max": 0.2477650126
        },
        "meters": {
            "estimated_diameter_min": 110.8038821264,
            "estimated_diameter_max": 247.7650126055
        },
        "miles": {
            "estimated_diameter_min": 0.068850319,
            "estimated_diameter_max": 0.1539539936
        },
        "feet": {
            "estimated_diameter_min": 363.5298086356,
            "estimated_diameter_max": 812.8773639568
        }
    },
    "is_potentially_hazardous_asteroid": false,
    "close_approach_data": [
        {
            "close_approach_date": "1942-01-02",
            "close_approach_date_full": "1942-Jan-02 00:17",
            "epoch_date_close_approach": -883525380000,
            "relative_velocity": {
                "kilometers_per_second": "5.7435167271",
                "kilometers_per_hour": "20676.6602174691",
                "miles_per_hour": "12847.6725667935"
            },
            "miss_distance": {
                "astronomical": "1.3286880987",
                "lunar": "516.8596703943",
                "kilometers": "198768909.459869769",
                "miles": "123509273.1372660522"
            },
            "orbiting_body": "Juptr"
        },
        {
            "close_approach_date": "2017-04-01",
            "close_approach_date_full": "2017-Apr-01 14:48",
            "epoch_date_close_approach": 1491058080000,
            "relative_velocity": {
                "kilometers_per_second": "17.5164794595",
                "kilometers_per_hour": "63059.3260543728",
                "miles_per_hour": "39182.6129030629"
            },
            "miss_distance": {
                "astronomical": "0.1071832138",
                "lunar": "41.6942701682",
                "kilometers": "16034380.484234606",
                "miles": "9963302.0284493228"
            },
            "orbiting_body": "Earth"
        },
        {
            "close_approach_date": "2017-05-14",
            "close_approach_date_full": "2017-May-14 16:23",
            "epoch_date_close_approach": 1494778980000,
            "relative_velocity": {
                "kilometers_per_second": "12.0947243795",
                "kilometers_per_hour": "43541.0077662475",
                "miles_per_hour": "27054.6889645331"
            },
            "miss_distance": {
                "astronomical": "0.0697113938",
                "lunar": "27.1177321882",
                "kilometers": "10428676.027211206",
                "miles": "6480078.7980624028"
            },
            "orbiting_body": "Venus"
        }
    ],
    "orbital_data": {
        "orbit_id": "7",
        "orbit_determination_date": "2017-04-15 06:13:49",
        "first_observation_date": "2017-03-08",
        "last_observation_date": "2017-03-25",
        "data_arc_in_days": 17,
        "observations_used": 44,
        "orbit_uncertainty": "8",
        "minimum_orbit_intersection": ".0793946",
        "jupiter_tisserand_invariant": "3.202",
        "epoch_osculation": "2457823.5",
        "eccentricity": ".700502222197843",
        "semi_major_axis": "2.300333799032876",
        "inclination": "7.690268656674506",
        "ascending_node_longitude": "41.44424877612752",
        "orbital_period": "1274.338246714536",
        "perihelion_distance": ".68894486101354",
        "perihelion_argument": "218.0170738246578",
        "aphelion_distance": "3.911722737052212",
        "perihelion_time": "2457885.811176752383",
        "mean_anomaly": "342.3971196904029",
        "mean_motion": ".2824995647177209",
        "equinox": "J2000",
        "orbit_class": {
            "orbit_class_type": "APO",
            "orbit_class_description": "Near-Earth asteroid orbits which cross the Earth’s orbit similar to that of 1862 Apollo",
            "orbit_class_range": "a (semi-major axis) > 1.0 AU; q (perihelion) < 1.017 AU"
        }
    },
    "is_sentry_object": false
}